ONEWEB-0324             
1 49193U 21083H   21266.25002315 -.01003659  00000-0 -32813-1 0  9999
2 49193  87.4015 325.2601 0018470 282.9706 228.6312 15.34510999  2570
ONEWEB-0325             
1 49194U 21083J   21266.25002315 -.01000441  00000-0 -34038-1 0  9997
2 49194  87.3998 325.2620 0016269 280.5458 213.5373 15.33301361  2573
ONEWEB-0326             
1 49195U 21083K   21266.25002315 -.00975708  00000-0 -30479-1 0  9999
2 49195  87.4006 325.2594 0019327 274.4760 257.8049 15.35827484  2584
ONEWEB-0327             
1 49196U 21083L   21266.25002315 -.00977431  00000-0 -31303-1 0  9992
2 49196  87.4000 325.2589 0019531 279.1763 241.6217 15.35052555  2582
ONEWEB-0328             
1 49197U 21083M   21266.25002315 -.00052072  00000-0 -14266-2 0  9998
2 49197  87.3979 325.2499 0016340 282.6340 295.0482 15.37437764  2591
ONEWEB-0331             
1 49198U 21083N   21265.83334491 -.00956280  00000-0 -30088-1 0  9998
2 49198  87.3996 325.4092 0019027 283.8387  90.0643 15.35556072  2236
ONEWEB-0333             
1 49199U 21083P   21266.25002315 -.00048041  00000-0 -13203-2 0  9991
2 49199  87.4009 325.2534 0015932 281.7092 292.7556 15.37333765  2590
ONEWEB-0334             
1 49200U 21083Q   21266.25002315 -.00049952  00000-0 -13166-2 0  9994
2 49200  87.3968 325.2421 0018832 271.0902 340.9103 15.38574728  2596
ONEWEB-0335             
1 49201U 21083R   21266.25002315 -.00929497  00000-0 -28453-1 0  9990
2 49201  87.3976 325.2577 0018278 271.4369 268.6448 15.36350128  2595
ONEWEB-0336             
1 49202U 21083S   21266.25002315 -.00414777  00000-0 -12142-1 0  9999
2 49202  87.3979 325.2558 0015946 271.4949 282.5133 15.36784458  2594
ONEWEB-0337             
1 49203U 21083T   21266.25002315 -.00931912  00000-0 -28743-1 0  9999
2 49203  87.3949 325.2577 0018809 271.8902 264.4819 15.36110222  2599
ONEWEB-0338             
1 49204U 21083U   21266.25002315 -.00048990  00000-0 -13190-2 0  9996
2 49204  87.3992 325.2469 0018460 280.2544 310.7974 15.37925018  2592
ONEWEB-0339             
1 49205U 21083V   21266.25002315 -.00225914  00000-0 -64465-2 0  9991
2 49205  87.3972 325.2512 0015753 273.1376 284.7163 15.36846468  2596
ONEWEB-0340             
1 49206U 21083W   21266.25002315 -.01005372  00000-0 -33653-1 0  9991
2 49206  87.4011 325.2625 0017003 283.0157 218.8941 15.33812122  2571
ONEWEB-0341             
1 49207U 21083X   21265.83334491 -.00992541  00000-0 -31847-1 0  9993
2 49207  87.3994 325.4113 0018047 285.3084  81.6523 15.35074549  2250
ONEWEB-0342             
1 49208U 21083Y   21266.25002315 -.00054109  00000-0 -14211-2 0  9994
2 49208  87.3996 325.2461 0018721 269.6239 346.0472 15.38700052  2599
ONEWEB-0343             
1 49209U 21083Z   21266.25002315 -.01003529  00000-0 -31927-1 0  9998
2 49209  87.4025 325.2628 0019410 277.7070 247.1139 15.35336562  2586
ONEWEB-0344             
1 49210U 21083AA  21265.83334491 -.00062490  00000-0 -17763-2 0  9990
2 49210  87.3969 325.4041 0017791 272.6561 128.2645 15.36302426  2252
ONEWEB-0345             
1 49211U 21083AB  21265.83334491 -.00053175  00000-0 -15046-2 0  9993
2 49211  87.3992 325.4041 0017288 272.3042 132.0884 15.36421965  2259
ONEWEB-0346             
1 49212U 21083AC  21266.25002315 -.01002727  00000-0 -33359-1 0  9992
2 49212  87.4014 325.2625 0017541 284.5911 219.0262 15.33984586  2575
ONEWEB-0348             
1 49213U 21083AD  21266.25002315 -.00053803  00000-0 -14251-2 0  9994
2 49213  87.4009 325.2493 0018900 272.8978 334.8935 15.38435131  2593
ONEWEB-0350             
1 49214U 21083AE  21266.25002315 -.00043624  00000-0 -12093-2 0  9997
2 49214  87.3992 325.2534 0015080 279.3223 287.2719 15.37066452  2597
ONEWEB-0351             
1 49215U 21083AF  21266.25002315 -.00050111  00000-0 -12876-2 0  9996
2 49215  87.3985 325.2436 0016002 262.2992  14.9399 15.39408899  2608
ONEWEB-0352             
1 49216U 21083AG  21266.25002315 -.00102515  00000-0 -28688-2 0  9991
2 49216  87.3992 325.2572 0015830 274.7001 286.6592 15.36973737  2591
ONEWEB-0354             
1 49217U 21083AH  21266.25002315 -.00050155  00000-0 -12939-2 0  9996
2 49217  87.4013 325.2442 0016550 262.8339  10.4016 15.39276656  2600
ONEWEB-0355             
1 49218U 21083AJ  21266.25002315 -.00047776  00000-0 -13193-2 0  9995
2 49218  87.3965 325.2496 0015479 280.3593 289.9235 15.37193186  2599
ONEWEB-0357             
1 49219U 21083AK  21266.25002315 -.00053673  00000-0 -14269-2 0  9994
2 49219  87.3981 325.2453 0019025 274.3384 329.9803 15.38319198  2593
